{
  "type": "FeatureCollection",
  "features": [
    {
      "type": "Feature",
      "properties": {
        "norad_id": 31160,
        "name": "FENGYUN 1C DEB",
        "group": "fengyun-1c-debris",
        "lat": 8.798803756478645,
        "lon": -121.68451255560043,
        "alt_km": 867.6864968556947,
        "timestamp": "2025-12-26T17:24:55.000067+00:00",
        "meta_object_name": "FENGYUN 1C DEB",
        "meta_object_id": "1999-025BHN",
        "meta_epoch": "2025-12-23T21:41:00.062016",
        "meta_mean_motion": 13.99593412,
        "meta_eccentricity": 0.0057633,
        "meta_inclination": 99.0833,
        "meta_ra_of_asc_node": 54.0972,
        "meta_arg_of_pericenter": 224.8785,
        "meta_mean_anomaly": 134.7712,
        "meta_ephemeris_type": 0,
        "meta_classification_type": "U",
        "meta_norad_cat_id": 31160,
        "meta_element_set_no": 999,
        "meta_rev_at_epoch": 69755,
        "meta_bstar": -5.6933e-05,
        "meta_mean_motion_dot": -1.29e-06,
        "meta_mean_motion_ddot": 0,
        "tle_line1": "1 31160U 99025BHN 25357.90347294 -.00000129  00000+0 -56933-4 0  9999",
        "tle_line2": "2 31160  99.0833  54.0972 0057633 224.8785 134.7712 13.99593412697555"
      },
      "geometry": {
        "type": "Point",
        "coordinates": [
          -121.68451255560043,
          8.798803756478645
        ]
      }
    },
    {
      "type": "Feature",
      "properties": {
        "norad_id": 31161,
        "name": "FENGYUN 1C DEB",
        "group": "fengyun-1c-debris",
        "lat": -17.848877851116058,
        "lon": 24.747893965799385,
        "alt_km": 824.9140438948134,
        "timestamp": "2025-12-26T17:24:55.000077+00:00",
        "meta_object_name": "FENGYUN 1C DEB",
        "meta_object_id": "1999-025BHP",
        "meta_epoch": "2025-12-26T07:16:34.291488",
        "meta_mean_motion": 14.09265442,
        "meta_eccentricity": 0.00678865,
        "meta_inclination": 98.7477,
        "meta_ra_of_asc_node": 21.4958,
        "meta_arg_of_pericenter": 311.4552,
        "meta_mean_anomaly": 48.08,
        "meta_ephemeris_type": 0,
        "meta_classification_type": "U",
        "meta_norad_cat_id": 31161,
        "meta_element_set_no": 999,
        "meta_rev_at_epoch": 96293,
        "meta_bstar": 0.00029138413,
        "meta_mean_motion_dot": 4.75e-06,
        "meta_mean_motion_ddot": 0,
        "tle_line1": "1 31161U 99025BHP 25360.30317467  .00000475  00000+0  29138-3 0  9995",
        "tle_line2": "2 31161  98.7477  21.4958 0067886 311.4552  48.0800 14.09265442962937"
      },
      "geometry": {
        "type": "Point",
        "coordinates": [
          24.747893965799385,
          -17.848877851116058
        ]
      }
    },
    {
      "type": "Feature",
      "properties": {
        "norad_id": 31165,
        "name": "FENGYUN 1C DEB",
        "group": "fengyun-1c-debris",
        "lat": 20.762228849215294,
        "lon": -114.82196114273663,
        "alt_km": 615.5365417238299,
        "timestamp": "2025-12-26T17:24:55.000087+00:00",
        "meta_object_name": "FENGYUN 1C DEB",
        "meta_object_id": "1999-025BHT",
        "meta_epoch": "2025-12-24T02:48:27.724320",
        "meta_mean_motion": 14.71218938,
        "meta_eccentricity": 0.00695704,
        "meta_inclination": 98.8836,
        "meta_ra_of_asc_node": 58.935,
        "meta_arg_of_pericenter": 199.3227,
        "meta_mean_anomaly": 191.4631,
        "meta_ephemeris_type": 0,
        "meta_classification_type": "U",
        "meta_norad_cat_id": 31165,
        "meta_element_set_no": 999,
        "meta_rev_at_epoch": 98922,
        "meta_bstar": 0.0013134818,
        "meta_mean_motion_dot": 8.356e-05,
        "meta_mean_motion_ddot": 0,
        "tle_line1": "1 31165U 99025BHT 25358.11698755  .00008356  00000+0  13135-2 0  9992",
        "tle_line2": "2 31165  98.8836  58.9350 0069570 199.3227 191.4631 14.71218938989229"
      },
      "geometry": {
        "type": "Point",
        "coordinates": [
          -114.82196114273663,
          20.762228849215294
        ]
      }
    },
    {
      "type": "Feature",
      "properties": {
        "norad_id": 31168,
        "name": "FENGYUN 1C DEB",
        "group": "fengyun-1c-debris",
        "lat": -54.16416646233823,
        "lon": -59.359785756119194,
        "alt_km": 738.8583663284435,
        "timestamp": "2025-12-26T17:24:55.000098+00:00",
        "meta_object_name": "FENGYUN 1C DEB",
        "meta_object_id": "1999-025BHW",
        "meta_epoch": "2025-12-25T02:42:28.009152",
        "meta_mean_motion": 14.67430174,
        "meta_eccentricity": 0.0108315,
        "meta_inclination": 98.8908,
        "meta_ra_of_asc_node": 131.4096,
        "meta_arg_of_pericenter": 25.5219,
        "meta_mean_anomaly": 335.1276,
        "meta_ephemeris_type": 0,
        "meta_classification_type": "U",
        "meta_norad_cat_id": 31168,
        "meta_element_set_no": 999,
        "meta_rev_at_epoch": 99302,
        "meta_bstar": 0.00058704,
        "meta_mean_motion_dot": 3.566e-05,
        "meta_mean_motion_ddot": 0,
        "tle_line1": "1 31168U 99025BHW 25359.11282418  .00003566  00000+0  58704-3 0  9991",
        "tle_line2": "2 31168  98.8908 131.4096 0108315  25.5219 335.1276 14.67430174993026"
      },
      "geometry": {
        "type": "Point",
        "coordinates": [
          -59.359785756119194,
          -54.16416646233823
        ]
      }
    },
    {
      "type": "Feature",
      "properties": {
        "norad_id": 31169,
        "name": "FENGYUN 1C DEB",
        "group": "fengyun-1c-debris",
        "lat": -18.363774151260607,
        "lon": -155.2773645727637,
        "alt_km": 838.7339040665383,
        "timestamp": "2025-12-26T17:24:55.000108+00:00",
        "meta_object_name": "FENGYUN 1C DEB",
        "meta_object_id": "1999-025BHX",
        "meta_epoch": "2025-12-24T00:31:09.564672",
        "meta_mean_motion": 14.2655263,
        "meta_eccentricity": 0.00572713,
        "meta_inclination": 99.1564,
        "meta_ra_of_asc_node": 24.9651,
        "meta_arg_of_pericenter": 344.5259,
        "meta_mean_anomaly": 15.4167,
        "meta_ephemeris_type": 0,
        "meta_classification_type": "U",
        "meta_norad_cat_id": 31169,
        "meta_element_set_no": 999,
        "meta_rev_at_epoch": 57265,
        "meta_bstar": 0.0020668623,
        "meta_mean_motion_dot": 5.027e-05,
        "meta_mean_motion_ddot": 0,
        "tle_line1": "1 31169U 99025BHX 25358.02163848  .00005027  00000+0  20669-2 0  9998",
        "tle_line2": "2 31169  99.1564  24.9651 0057271 344.5259  15.4167 14.26552630572650"
      },
      "geometry": {
        "type": "Point",
        "coordinates": [
          -155.2773645727637,
          -18.363774151260607
        ]
      }
    },
    {
      "type": "Feature",
      "properties": {
        "norad_id": 31171,
        "name": "FENGYUN 1C DEB",
        "group": "fengyun-1c-debris",
        "lat": -0.5389498407678907,
        "lon": -10.519090392810766,
        "alt_km": 766.6728304530825,
        "timestamp": "2025-12-26T17:24:55.000119+00:00",
        "meta_object_name": "FENGYUN 1C DEB",
        "meta_object_id": "1999-025BHZ",
        "meta_epoch": "2025-12-23T05:49:54.685056",
        "meta_mean_motion": 14.35071995,
        "meta_eccentricity": 0.01531947,
        "meta_inclination": 98.0162,
        "meta_ra_of_asc_node": 346.1686,
        "meta_arg_of_pericenter": 284.8924,
        "meta_mean_anomaly": 90.6441,
        "meta_ephemeris_type": 0,
        "meta_classification_type": "U",
        "meta_norad_cat_id": 31171,
        "meta_element_set_no": 999,
        "meta_rev_at_epoch": 95981,
        "meta_bstar": 0.0038414381,
        "meta_mean_motion_dot": 0.00012487,
        "meta_mean_motion_ddot": 0,
        "tle_line1": "1 31171U 99025BHZ 25357.24299404  .00012487  00000+0  38414-2 0  9997",
        "tle_line2": "2 31171  98.0162 346.1686 0153194 284.8924  90.6441 14.35071995959815"
      },
      "geometry": {
        "type": "Point",
        "coordinates": [
          -10.519090392810766,
          -0.5389498407678907
        ]
      }
    },
    {
      "type": "Feature",
      "properties": {
        "norad_id": 31172,
        "name": "FENGYUN 1C DEB",
        "group": "fengyun-1c-debris",
        "lat": 77.34656235887583,
        "lon": -36.52179429225928,
        "alt_km": 867.2589417337931,
        "timestamp": "2025-12-26T17:24:55.000129+00:00",
        "meta_object_name": "FENGYUN 1C DEB",
        "meta_object_id": "1999-025BJA",
        "meta_epoch": "2025-12-25T05:48:08.699040",
        "meta_mean_motion": 14.31524634,
        "meta_eccentricity": 0.0148292,
        "meta_inclination": 98.4251,
        "meta_ra_of_asc_node": 3.3501,
        "meta_arg_of_pericenter": 231.2263,
        "meta_mean_anomaly": 127.5595,
        "meta_ephemeris_type": 0,
        "meta_classification_type": "U",
        "meta_norad_cat_id": 31172,
        "meta_element_set_no": 999,
        "meta_rev_at_epoch": 97805,
        "meta_bstar": 0.00013612,
        "meta_mean_motion_dot": 3.62e-06,
        "meta_mean_motion_ddot": 0,
        "tle_line1": "1 31172U 99025BJA 25359.24176735  .00000362  00000+0  13612-3 0  9994",
        "tle_line2": "2 31172  98.4251   3.3501 0148292 231.2263 127.5595 14.31524634978058"
      },
      "geometry": {
        "type": "Point",
        "coordinates": [
          -36.52179429225928,
          77.34656235887583
        ]
      }
    }
  ]
}